NORAD_CAT_ID,OBJECT_NAME,OBJECT_TYPE,EPOCH,MEAN_MOTION,ECCENTRICITY,INCLINATION,RA_OF_ASC_NODE,ARG_OF_PERICENTER,MEAN_ANOMALY,BSTAR,MEAN_MOTION_DOT,MEAN_MOTION_DDOT,TLE_LINE0,TLE_LINE1,TLE_LINE2,SEMIMAJOR_AXIS,PERIOD,APOGEE,PERIGEE,DECAYED
53034.0,STARLINK-4151,PAYLOAD,2024-05-22 04:39:38,15.08839956,0.0001348,53.2146,141.2929,97.4332,262.6813,3.2175e-05,2.24e-06,0.0,0 STARLINK-4151,1 53034U 22076BA  24143.19419893  .00000224  00000-0  32175-4 0  9990,2 53034  53.2146 141.2929 0001348  97.4332 262.6813 15.08839956104478,6917.881,95.438,540.678,538.813,0.0
53034.0,STARLINK-4151,PAYLOAD,2024-05-22 09:25:48,15.08840686,0.000136,53.2156,140.4011,91.7154,268.3994,1.062e-05,-1.19e-06,0.0,0 STARLINK-4151,1 53034U 22076BA  24143.39292018 -.00000119  00000-0  10620-4 0  9995,2 53034  53.2156 140.4011 0001360  91.7154 268.3994 15.08840686104043,6917.878,95.438,540.684,538.802,0.0
53034.0,STARLINK-4151,PAYLOAD,2024-05-23 06:05:49,15.08839498,0.0001368,53.2171,136.5349,88.7978,271.3171,6.6565e-05,7.72e-06,0.0,0 STARLINK-4151,1 53034U 22076BA  24144.25404144  .00000772  00000-0  66565-4 0  9999,2 53034  53.2171 136.5349 0001368  88.7978 271.3171 15.08839498104633,6917.882,95.438,540.693,538.801,0.0
53034.0,STARLINK-4151,PAYLOAD,2024-05-24 09:07:22,15.08844048,0.0001398,53.217,131.4799,92.013,268.1023,0.00014587,2.035e-05,0.0,0 STARLINK-4151,1 53034U 22076BA  24145.38011659  .00002035  00000-0  14587-3 0  9999,2 53034  53.2170 131.4799 0001398  92.0130 268.1023 15.08844048104802,6917.868,95.437,540.7,538.766,0.0
53034.0,STARLINK-4151,PAYLOAD,2024-05-25 05:47:23,15.08830432,0.0001384,53.2169,127.6122,98.1785,261.9364,-2.088e-05,-6.2e-06,0.0,0 STARLINK-4151,1 53034U 22076BA  24146.24124903 -.00000620  00000-0 -20880-4 0  9996,2 53034  53.2169 127.6122 0001384  98.1785 261.9364 15.08830432104930,6917.91,95.438,540.732,538.817,0.0
53034.0,STARLINK-4151,PAYLOAD,2024-05-25 08:58:10,15.08829225,0.0001408,53.217,127.0186,99.1247,260.9904,-3.3557e-05,-8.22e-06,0.0,0 STARLINK-4151,1 53034U 22076BA  24146.37373067 -.00000822  00000-0 -33557-4 0  9996,2 53034  53.2170 127.0186 0001408  99.1247 260.9904 15.08829225104495,6917.913,95.438,540.752,538.804,0.0
53034.0,STARLINK-4151,PAYLOAD,2024-05-26 04:02:47,15.08839192,0.000134,53.2167,123.4521,100.3435,259.7708,4.1448e-08,-2.87e-06,0.0,0 STARLINK-4151,1 53034U 22076BA  24147.16860553 -.00000287  00000-0  41448-7 0  9990,2 53034  53.2167 123.4521 0001340 100.3435 259.7708 15.08839192105070,6917.883,95.438,540.675,538.821,0.0
53034.0,STARLINK-4151,PAYLOAD,2024-05-26 05:38:10,15.0884178,0.0001429,53.2168,123.1552,111.6707,248.4438,-2.6341e-05,-7.07e-06,0.0,0 STARLINK-4151,1 53034U 22076BA  24147.23484543 -.00000707  00000-0 -26341-4 0  9999,2 53034  53.2168 123.1552 0001429 111.6707 248.4438 15.08841780104628,6917.875,95.437,540.729,538.751,0.0
53034.0,STARLINK-4151,PAYLOAD,2024-05-26 21:32:02,15.088353,0.0001577,53.2174,120.1819,96.1637,263.9534,7.7238e-05,9.41e-06,0.0,0 STARLINK-4151,1 53034U 22076BA  24147.89724715  .00000941  00000-0  77238-4 0  9998,2 53034  53.2174 120.1819 0001577  96.1637 263.9534 15.08835300104722,6917.895,95.438,540.851,538.669,0.0
53034.0,STARLINK-4151,PAYLOAD,2024-05-27 05:28:58,15.08828257,0.000136,53.2171,118.6944,99.1293,260.9853,9.8672e-05,1.282e-05,0.0,0 STARLINK-4151,1 53034U 22076BA  24148.22845260  .00001282  00000-0  98672-4 0  9999,2 53034  53.2171 118.6944 0001360  99.1293 260.9853 15.08828257105232,6917.916,95.438,540.722,538.84,0.0
53034.0,STARLINK-4151,PAYLOAD,2024-05-27 21:22:49,15.08835192,0.0001354,53.2168,115.7184,108.7406,251.3733,4.8343e-05,4.81e-06,0.0,0 STARLINK-4151,1 53034U 22076BA  24148.89085175  .00000481  00000-0  48343-4 0  9993,2 53034  53.2168 115.7184 0001354 108.7406 251.3733 15.08835192104874,6917.895,95.438,540.697,538.823,0.0
53034.0,STARLINK-4151,PAYLOAD,2024-05-28 05:19:44,15.08841142,0.0001299,53.2165,114.232,104.7842,255.3294,7.8732e-05,9.65e-06,0.0,0 STARLINK-4151,1 53034U 22076BA  24149.22204765  .00000965  00000-0  78732-4 0  9991,2 53034  53.2165 114.2320 0001299 104.7842 255.3294 15.08841142105380,6917.877,95.437,540.641,538.843,0.0
53034.0,STARLINK-4151,PAYLOAD,2024-05-28 21:13:36,15.08840869,0.0001288,53.2166,111.2586,99.8099,260.3038,0.0001033,1.357e-05,0.0,0 STARLINK-4151,1 53034U 22076BA  24149.88444647  .00001357  00000-0  10330-3 0  9993,2 53034  53.2166 111.2586 0001288  99.8099 260.3038 15.08840869105026,6917.878,95.437,540.634,538.852,0.0
53034.0,STARLINK-4151,PAYLOAD,2024-05-29 06:45:55,15.08841502,0.0001394,53.2178,109.4753,94.0527,266.0624,0.0001017,1.331e-05,0.0,0 STARLINK-4151,1 53034U 22076BA  24150.28188691  .00001331  00000-0  10170-3 0  9997,2 53034  53.2178 109.4753 0001394  94.0527 266.0624 15.08841502105541,6917.876,95.437,540.705,538.776,0.0
53034.0,STARLINK-4151,PAYLOAD,2024-05-30 06:36:41,15.0884543,0.000144,53.2181,105.0143,91.5664,268.5493,4.7503e-05,4.68e-06,0.0,0 STARLINK-4151,1 53034U 22076BA  24151.27548584  .00000468  00000-0  47503-4 0  9999,2 53034  53.2181 105.0143 0001440  91.5664 268.5493 15.08845430105237,6917.864,95.437,540.725,538.733,0.0
53034.0,STARLINK-4151,PAYLOAD,2024-05-31 03:16:42,15.08841541,0.0001445,53.2182,101.1485,94.2682,265.8475,2.2302e-05,6.7e-07,0.0,0 STARLINK-4151,1 53034U 22076BA  24152.13660766  .00000067  00000-0  22302-4 0  9997,2 53034  53.2182 101.1485 0001445  94.2682 265.8475 15.08841541105823,6917.876,95.437,540.74,538.741,0.0
53034.0,STARLINK-4151,PAYLOAD,2024-05-31 06:27:29,15.0884127,0.0001441,53.2181,100.5534,97.7288,262.3868,2.1926e-05,6.1e-07,0.0,0 STARLINK-4151,1 53034U 22076BA  24152.26908756  .00000061  00000-0  21926-4 0  9990,2 53034  53.2181 100.5534 0001441  97.7288 262.3868 15.08841270105384,6917.877,95.437,540.738,538.745,0.0
53034.0,STARLINK-4151,PAYLOAD,2024-06-01 12:39:48,15.08847067,0.0001304,53.2184,94.9043,92.5016,267.6126,7.3412e-05,8.81e-06,0.0,0 STARLINK-4151,1 53034U 22076BA  24153.52764192  .00000881  00000-0  73412-4 0  9991,2 53034  53.2184  94.9043 0001304  92.5016 267.6126 15.08847067106036,6917.859,95.437,540.626,538.822,0.0
53034.0,STARLINK-4151,PAYLOAD,2024-06-01 20:36:44,15.08836753,0.0001974,53.2183,93.4189,100.0585,260.063,7.977e-05,9.81e-06,0.0,0 STARLINK-4151,1 53034U 22076BA  24153.85885026  .00000981  00000-0  79770-4 0  9991,2 53034  53.2183  93.4189 0001974 100.0585 260.0630 15.08836753106081,6917.89,95.438,541.121,538.39,0.0
53034.0,STARLINK-4151,PAYLOAD,2024-06-02 12:30:35,15.08842907,0.0001462,53.2199,90.4475,93.7725,266.3434,3.7853e-05,3.15e-06,0.0,0 STARLINK-4151,1 53034U 22076BA  24154.52124898  .00000315  00000-0  37853-4 0  9996,2 53034  53.2199  90.4475 0001462  93.7725 266.3434 15.08842907105728,6917.872,95.437,540.748,538.725,0.0
53034.0,STARLINK-4151,PAYLOAD,2024-06-02 18:52:08,15.08835912,0.0001258,53.2196,89.2594,90.8609,269.2527,5.937e-05,6.57e-06,0.0,0 STARLINK-4151,1 53034U 22076BA  24154.78621344  .00000657  00000-0  59370-4 0  9999,2 53034  53.2196  89.2594 0001258  90.8609 269.2527 15.08835912105762,6917.893,95.438,540.628,538.888,0.0
53034.0,STARLINK-4151,PAYLOAD,2024-06-03 04:24:28,15.08833573,0.0001304,53.2192,87.4722,89.4305,270.6836,-7.6821e-06,-4.1e-06,0.0,0 STARLINK-4151,1 53034U 22076BA  24155.18365945 -.00000410  00000-0 -76821-5 0  9996,2 53034  53.2192  87.4722 0001304  89.4305 270.6836 15.08833573106288,6917.9,95.438,540.667,538.863,0.0
53034.0,STARLINK-4151,PAYLOAD,2024-06-03 12:21:23,15.08844646,0.0001412,53.2201,85.9855,87.585,272.5303,6.6115e-05,7.65e-06,0.0,0 STARLINK-4151,1 53034U 22076BA  24155.51485095  .00000765  00000-0  66115-4 0  9997,2 53034  53.2201  85.9855 0001412  87.5850 272.5303 15.08844646106332,6917.866,95.437,540.708,538.754,0.0
53034.0,STARLINK-4151,PAYLOAD,2024-06-04 04:15:15,15.08834219,0.0001273,53.2189,83.0105,82.8416,277.2721,6.5153e-05,7.49e-06,0.0,0 STARLINK-4151,1 53034U 22076BA  24156.17726129  .00000749  00000-0  65153-4 0  9999,2 53034  53.2189  83.0105 0001273  82.8416 277.2721 15.08834219106437,6917.898,95.438,540.644,538.882,0.0
53034.0,STARLINK-4151,PAYLOAD,2024-06-04 12:12:09,15.08852647,0.0001357,53.2184,81.5239,78.7256,281.3888,0.000146,2.037e-05,0.0,0 STARLINK-4151,1 53034U 22076BA  24156.50844727  .00002037  00000-0  14600-3 0  9993,2 53034  53.2184  81.5239 0001357  78.7256 281.3888 15.08852647106482,6917.842,95.437,540.645,538.768,0.0
53034.0,STARLINK-4151,PAYLOAD,2024-06-05 04:06:01,15.08845674,0.0001374,53.2187,78.5465,92.6219,267.493,0.00010855,1.44e-05,0.0,0 STARLINK-4151,1 53034U 22076BA  24157.17085390  .00001440  00000-0  10855-3 0  9995,2 53034  53.2187  78.5465 0001374  92.6219 267.4930 15.08845674106581,6917.863,95.437,540.679,538.778,0.0
53034.0,STARLINK-4151,PAYLOAD,2024-06-05 12:02:56,15.08853428,0.0001387,53.2187,77.0655,84.7682,275.3468,0.00017335,2.473e-05,0.0,0 STARLINK-4151,1 53034U 22076BA  24157.50204602  .00002473  00000-0  17335-3 0  9998,2 53034  53.2187  77.0655 0001387  84.7682 275.3468 15.08853428106632,6917.839,95.437,540.664,538.745,0.0
53034.0,STARLINK-4151,PAYLOAD,2024-06-06 03:56:49,15.08843257,0.00014,53.2188,74.0863,109.3363,250.778,3.0204e-06,-2.4e-06,0.0,0 STARLINK-4151,1 53034U 22076BA  24158.16445715 -.00000240  00000-0  30204-5 0  9996,2 53034  53.2188  74.0863 0001400 109.3363 250.7780 15.08843257106731,6917.87,95.437,540.704,538.767,0.0
53034.0,STARLINK-4151,PAYLOAD,2024-06-06 11:53:44,15.08842452,0.000139,53.2187,72.599,111.0671,249.047,1.629e-06,-2.62e-06,0.0,0 STARLINK-4151,1 53034U 22076BA  24158.49565754 -.00000262  00000-0  16290-5 0  9991,2 53034  53.2187  72.5990 0001390 111.0671 249.0470 15.08842452106322,6917.873,95.437,540.699,538.776,0.0
53034.0,STARLINK-4151,PAYLOAD,2024-06-07 22:52:13,15.08842477,0.0002015,53.2177,66.0604,167.7108,192.3934,0.00019902,2.881e-05,0.0,0 STARLINK-4151,1 53034U 22076BA  24159.95293353  .00002881  00000-0  19902-3 0  9995,2 53034  53.2177  66.0604 0002015 167.7108 192.3934 15.08842477106545,6917.873,95.437,541.132,538.344,0.0
